NORAD_CAT_ID,OBJECT_NAME,OBJECT_TYPE,EPOCH,MEAN_MOTION,ECCENTRICITY,INCLINATION,RA_OF_ASC_NODE,ARG_OF_PERICENTER,MEAN_ANOMALY,BSTAR,MEAN_MOTION_DOT,MEAN_MOTION_DDOT,TLE_LINE0,TLE_LINE1,TLE_LINE2,SEMIMAJOR_AXIS,PERIOD,APOGEE,PERIGEE,DECAYED
56457.0,STARLINK-5994,PAYLOAD,2023-05-29 12:19:12,15.69931256,0.0003418,69.9991,192.4882,264.0364,96.0442,0.00019169,0.00022906,0.0,0 STARLINK-5994,1 56457U 23064K   23149.51333336  .00022906  00000-0  19169-3 0  9996,2 56457  69.9991 192.4882 0003418 264.0364  96.0442 15.69931256  2977,6737.231,91.724,361.398,356.793,0.0
56457.0,STARLINK-5994,PAYLOAD,2023-05-29 19:57:57,15.69934285,0.0003461,69.9991,191.5923,263.5034,96.5768,0.00019983,0.00023894,0.0,0 STARLINK-5994,1 56457U 23064K   23149.83191710  .00023894  00000-0  19983-3 0  9990,2 56457  69.9991 191.5923 0003461 263.5034  96.5768 15.69934285  3027,6737.222,91.724,361.419,356.755,0.0
56457.0,STARLINK-5994,PAYLOAD,2023-05-29 22:00:00,15.69883854,0.0003508,69.9993,191.3538,261.6869,217.3118,0.00062115,0.00075023,0.0,0 STARLINK-5994,1 56457U 23064K   23149.91667824  .00075023  00000-0  62115-3 0  9999,2 56457  69.9993 191.3538 0003508 261.6869 217.3118 15.69883854  3393,6737.366,91.727,361.595,356.868,0.0
56457.0,STARLINK-5994,PAYLOAD,2023-05-30 11:15:28,15.69940816,0.000347,69.9991,189.8007,263.257,96.8231,0.00017134,0.00020454,0.0,0 STARLINK-5994,1 56457U 23064K   23150.46908261  .00020454  00000-0  17134-3 0  9993,2 56457  69.9991 189.8007 0003470 263.2570  96.8231 15.69940816  3476,6737.203,91.723,361.406,356.731,0.0
56457.0,STARLINK-5994,PAYLOAD,2023-05-30 12:47:13,15.69945451,0.0003513,69.999,189.6213,263.7686,96.3109,0.0002138,0.00025597,0.0,0 STARLINK-5994,1 56457U 23064K   23150.53279866  .00025597  00000-0  21380-3 0  9994,2 56457  69.9990 189.6213 0003513 263.7686  96.3109 15.69945451  3135,6737.19,91.723,361.422,356.688,0.0
56457.0,STARLINK-5994,PAYLOAD,2023-05-30 18:54:14,15.69938107,0.0003491,69.999,188.9051,266.0669,94.0127,0.0001589,0.00018948,0.0,0 STARLINK-5994,1 56457U 23064K   23150.78766654  .00018948  00000-0  15890-3 0  9998,2 56457  69.9990 188.9051 0003491 266.0669  94.0127 15.69938107  3527,6737.211,91.723,361.428,356.724,0.0
56457.0,STARLINK-5994,PAYLOAD,2023-05-30 20:25:59,15.69936672,0.0003475,69.9991,188.7259,265.8376,94.2423,0.00013569,0.00016143,0.0,0 STARLINK-5994,1 56457U 23064K   23150.85138295  .00016143  00000-0  13569-3 0  9996,2 56457  69.9991 188.7259 0003475 265.8376  94.2423 15.69936672  3188,6737.215,91.723,361.421,356.739,0.0
56457.0,STARLINK-5994,PAYLOAD,2023-05-31 02:33:00,15.69933003,0.0003456,69.999,188.0091,265.1582,94.9219,0.00012076,0.00014338,0.0,0 STARLINK-5994,1 56457U 23064K   23151.10625081  .00014338  00000-0  12076-3 0  9995,2 56457  69.9990 188.0091 0003456 265.1582  94.9219 15.69933003  3573,6737.226,91.724,361.419,356.762,0.0
56457.0,STARLINK-5994,PAYLOAD,2023-05-31 11:43:30,15.69933396,0.0003512,69.9988,186.9345,265.9666,94.1128,4.6729e-05,5.412e-05,0.0,0 STARLINK-5994,1 56457U 23064K   23151.48854884  .00005412  00000-0  46729-4 0  9997,2 56457  69.9988 186.9345 0003512 265.9666  94.1128 15.69933396  3287,6737.225,91.724,361.456,356.723,0.0
56457.0,STARLINK-5994,PAYLOAD,2023-05-31 14:47:00,15.69932959,0.0003508,69.9987,186.5763,265.9888,94.0907,4.3786e-05,5.057e-05,0.0,0 STARLINK-5994,1 56457U 23064K   23151.61598209  .00005057  00000-0  43786-4 0  9993,2 56457  69.9987 186.5763 0003508 265.9888  94.0907 15.69932959  3656,6737.226,91.724,361.454,356.727,0.0
56457.0,STARLINK-5994,PAYLOAD,2023-05-31 20:54:01,15.69926961,0.0003568,69.9986,185.8597,266.9223,93.1565,2.131e-05,2.351e-05,0.0,0 STARLINK-5994,1 56457U 23064K   23151.87085011  .00002351  00000-0  21310-4 0  9996,2 56457  69.9986 185.8597 0003568 266.9223  93.1565 15.69926961  3344,6737.243,91.724,361.512,356.704,0.0
56457.0,STARLINK-5994,PAYLOAD,2023-06-01 03:01:01,15.69926225,0.0003571,69.9985,185.1429,267.704,92.3746,1.8494e-05,2.012e-05,0.0,0 STARLINK-5994,1 56457U 23064K   23152.12571710  .00002012  00000-0  18494-4 0  9994,2 56457  69.9985 185.1429 0003571 267.7040  92.3746 15.69926225  3738,6737.245,91.724,361.516,356.704,0.0
56457.0,STARLINK-5994,PAYLOAD,2023-06-01 04:32:47,15.69920056,0.0003603,69.9984,184.9641,268.3109,91.7674,3.5748e-07,-1.7e-06,0.0,0 STARLINK-5994,1 56457U 23064K   23152.18943680 -.00000170  00000-0  35748-6 0  9996,2 56457  69.9984 184.9641 0003603 268.3109  91.7674 15.69920056  3390,6737.263,91.724,361.555,356.7,0.0
56457.0,STARLINK-5994,PAYLOAD,2023-06-01 19:50:18,15.69930642,0.0002745,69.9984,183.172,264.2715,95.8168,5.1247e-05,5.955e-05,0.0,0 STARLINK-5994,1 56457U 23064K   23152.82660287  .00005955  00000-0  51247-4 0  9991,2 56457  69.9984 183.1720 0002745 264.2715  95.8168 15.69930642  3499,6737.232,91.724,360.947,357.248,0.0
56457.0,STARLINK-5994,PAYLOAD,2023-06-02 09:36:04,15.69922481,0.000351,69.9981,181.5602,265.1,94.9795,9.7984e-06,9.65e-06,0.0,0 STARLINK-5994,1 56457U 23064K   23153.40005236  .00000965  00000-0  97984-5 0  9998,2 56457  69.9981 181.5602 0003510 265.1000  94.9795 15.69922481  3932,6737.256,91.724,361.486,356.756,0.0
56457.0,STARLINK-5994,PAYLOAD,2023-06-02 11:07:49,15.69920299,0.0003458,69.9979,181.3811,266.3681,93.7119,8.9861e-07,-1.05e-06,0.0,0 STARLINK-5994,1 56457U 23064K   23153.46377063 -.00000105  00000-0  89861-6 0  9997,2 56457  69.9979 181.3811 0003458 266.3681  93.7119 15.69920299  3592,6737.262,91.724,361.457,356.797,0.0
56457.0,STARLINK-5994,PAYLOAD,2023-06-02 18:46:35,15.69922144,0.0003449,69.9976,180.4855,266.2379,93.8422,5.2421e-06,4.17e-06,0.0,0 STARLINK-5994,1 56457U 23064K   23153.78235444  .00000417  00000-0  52421-5 0  9994,2 56457  69.9976 180.4855 0003449 266.2379  93.8422 15.69922144  3645,6737.257,91.724,361.445,356.798,0.0
56457.0,STARLINK-5994,PAYLOAD,2023-06-03 10:04:06,15.69926992,0.0003464,69.9974,178.694,269.2081,90.8717,2.6304e-05,2.951e-05,0.0,0 STARLINK-5994,1 56457U 23064K   23154.41952124  .00002951  00000-0  26304-4 0  9991,2 56457  69.9974 178.6940 0003464 269.2081  90.8717 15.69926992  4096,6737.243,91.724,361.442,356.774,0.0
56457.0,STARLINK-5994,PAYLOAD,2023-06-03 11:35:51,15.69928296,0.0003457,69.9975,178.5148,269.6655,90.4145,2.5412e-05,2.844e-05,0.0,0 STARLINK-5994,1 56457U 23064K   23154.48323720  .00002844  00000-0  25412-4 0  9992,2 56457  69.9975 178.5148 0003457 269.6655  90.4145 15.69928296  3751,6737.239,91.724,361.433,356.775,0.0
56457.0,STARLINK-5994,PAYLOAD,2023-06-03 19:14:36,15.69933056,0.0003398,69.9974,177.6194,263.629,96.4519,-3.9666e-06,-6.9e-06,0.0,0 STARLINK-5994,1 56457U 23064K   23154.80181707 -.00000690  00000-0 -39666-5 0  9991,2 56457  69.9974 177.6194 0003398 263.6290  96.4519 15.69933056  3801,6737.226,91.724,361.38,356.801,0.0
56457.0,STARLINK-5994,PAYLOAD,2023-06-04 02:53:23,15.69921516,0.0003301,69.9989,176.7236,269.4584,90.6233,1.0617e-05,1.064e-05,0.0,0 STARLINK-5994,1 56457U 23064K   23155.12040746  .00001064  00000-0  10617-4 0  9992,2 56457  69.9989 176.7236 0003301 269.4584  90.6233 15.69921516  4200,6737.259,91.724,361.348,356.9,0.0
56457.0,STARLINK-5994,PAYLOAD,2023-06-04 10:32:08,15.69923599,0.0003357,69.9972,175.8278,260.4913,99.5903,1.9616e-05,2.146e-05,0.0,0 STARLINK-5994,1 56457U 23064K   23155.43898914  .00002146  00000-0  19616-4 0  9994,2 56457  69.9972 175.8278 0003357 260.4913  99.5903 15.69923599  3907,6737.253,91.724,361.379,356.856,0.0
56457.0,STARLINK-5994,PAYLOAD,2023-06-04 15:07:23,15.69925011,0.0003382,69.9972,175.2904,262.5873,97.4938,1.9329e-05,2.112e-05,0.0,0 STARLINK-5994,1 56457U 23064K   23155.63013826  .00002112  00000-0  19329-4 0  9991,2 56457  69.9972 175.2904 0003382 262.5873  97.4938 15.69925011  3932,6737.249,91.724,361.392,356.835,0.0
56457.0,STARLINK-5994,PAYLOAD,2023-06-05 04:53:10,15.69925349,0.0003446,69.9977,173.6779,262.6714,97.409,1.5124e-05,1.606e-05,0.0,0 STARLINK-5994,1 56457U 23064K   23156.20358823  .00001606  00000-0  15124-4 0  9990,2 56457  69.9977 173.6779 0003446 262.6714  97.4090 15.69925349  4377,6737.248,91.724,361.434,356.791,0.0
56457.0,STARLINK-5994,PAYLOAD,2023-06-05 12:31:55,15.69922946,0.0003389,69.9976,172.7823,261.8708,98.2103,9.1554e-06,8.88e-06,0.0,0 STARLINK-5994,1 56457U 23064K   23156.52217435  .00000888  00000-0  91554-5 0  9991,2 56457  69.9976 172.7823 0003389 261.8708  98.2103 15.69922946  4077,6737.254,91.724,361.403,356.836,0.0
56457.0,STARLINK-5994,PAYLOAD,2023-06-05 18:38:56,15.6992505,0.0003358,69.9975,172.0657,261.7151,98.3664,-1.52e-05,-2.04e-05,0.0,0 STARLINK-5994,1 56457U 23064K   23156.77704391 -.00002040  00000-0 -15200-4 0  9997,2 56457  69.9975 172.0657 0003358 261.7151  98.3664 15.69925050  4118,6737.248,91.724,361.376,356.851,0.0
56457.0,STARLINK-5994,PAYLOAD,2023-06-06 00:45:56,15.69919998,0.0003603,69.9976,171.3495,264.0848,95.9937,8.6951e-06,8.33e-06,0.0,0 STARLINK-5994,1 56457U 23064K   23157.03190931  .00000833  00000-0  86951-5 0  9994,2 56457  69.9976 171.3495 0003603 264.0848  95.9937 15.69919998  4506,6737.263,91.724,361.555,356.7,0.0
56457.0,STARLINK-5994,PAYLOAD,2023-06-06 09:56:27,15.69926298,0.0003424,69.9981,170.2751,261.9757,98.1051,1.4381e-05,1.517e-05,0.0,0 STARLINK-5994,1 56457U 23064K   23157.41420564  .00001517  00000-0  14381-4 0  9991,2 56457  69.9981 170.2751 0003424 261.9757  98.1051 15.69926298  4212,6737.245,91.724,361.417,356.803,0.0
56457.0,STARLINK-5994,PAYLOAD,2023-06-06 12:59:57,15.69930401,0.0003536,69.9973,169.9174,264.7298,95.3494,1.3349e-05,1.393e-05,0.0,0 STARLINK-5994,1 56457U 23064K   23157.54163660  .00001393  00000-0  13349-4 0  9991,2 56457  69.9973 169.9174 0003536 264.7298  95.3494 15.69930401  4583,6737.233,91.724,361.48,356.716,0.0
56457.0,STARLINK-5994,PAYLOAD,2023-06-07 04:17:29,15.69921737,0.0003362,69.9983,168.1246,265.7561,94.3251,1.0144e-06,-9.1e-07,0.0,0 STARLINK-5994,1 56457U 23064K   23158.17881195 -.00000091  00000-0  10144-5 0  9997,2 56457  69.9983 168.1246 0003362 265.7561  94.3251 15.69921737  4689,6737.258,91.724,361.388,356.858,0.0
